#dP2024  3 14  0  0  0.00000000      96 __u+U IGS20 FIT  IAC
## 2305 345600.00000000   900.00000000 60383 0.0000000000000
+  119   C06C07C08C09C10C11C12C13C14C16C19C20C21C22C23C24C25
+        C26C27C28C29C30C32C33C34C35C36C37C38C39C40C41C42C43
+        C44C45C46E02E03E04E05E07E08E09E10E11E12E13E14E15E18
+        E19E21E24E25E26E27E30E31E33E34E36G01G02G03G04G05G06
+        G07G08G09G10G11G12G13G14G15G16G17G18G19G20G21G22G23
+        G24G25G26G27G28G29G30G31G32J02J03J04R01R02R03R04R05
+        R07R08R09R11R12R13R14R15R16R17R18R19R20R21R22R24R25
++        10  9  6  7  8  7  7  8  6 10  7  6  5  6  6  5  5
++         6  5  7  8  7  7  7  6  7  6  6  6  8  8  7  6  6
++         6  9  6  6  5  6  7  6  6  6  6  7  6  4  5  6  6
++         5  6  7  6  6  6  6  6  6  6  6  6  6  5  6  3  5
++         5  5  5  5  5  6  5  5  3  6  5  4  6  5  4  6  5
++         5  4  6  6  8  3  6  5  5  8  8  0  6  7  5  6  5
++         6  6  7  6  6  6  5  6  7  8  6  7  8  6  6  6  5
%c M  cc GPS ccc cccc cccc cccc cccc ccccc ccccc ccccc ccccc
%c cc cc ccc ccc cccc cccc cccc cccc ccccc ccccc ccccc ccccc
%f  0.0000000  0.000000000  0.00000000000  0.000000000000000
%f  0.0000000  0.000000000  0.00000000000  0.000000000000000
%i    0    0    0    0      0      0      0      0         0
%i    0    0    0    0      0      0      0      0         0
/* INFORMATION & ANALYSIS CENTER (IAC)      ULTRA-RAPID DATA
/* S/V CLOCKS ARE ALIGNED TO GNSS TIME                      
/* G:C1WC2W R:C1PC2P E:C1XC5X C:C2IC6I J:C1CC2S             
/* PCV:IGS20_2290 OL/AL:FES2004  NONE     YN ORB:CoN CLK:CoN
*  2024 03 14 17 15  0.00000000
PC06  -9684.423085  40970.753923   4450.163404    272.963480
PC07  -6099.233003  27725.490354 -31058.601780   -915.858580
PC08 -19804.325844  25045.711706  27419.975536     61.774271
PC09  -6610.384761  41872.516248  -2662.708560   -620.418200
PC10   2342.115832  30198.885263 -28824.240997     45.275563
PC11    567.202962  27320.444840  -5584.112987    459.628870
PC12 -10987.389648  15730.911773 -20227.741577   -212.916169
PC13 -10609.354387  25937.862602  31568.082448    424.796767
PC14   1605.963571  16605.189913  22377.679990    405.327968
PC16 -12220.084521  39652.266768   8734.167123   -396.035484
PC19 -12169.158908 -17212.745312 -18271.525584   -919.384073
PC20   7129.554621 -14005.632525 -23042.015053   -256.580147
PC21 -23966.659664   1911.681924  14212.347609   -961.353695
PC22 -25615.080833 -10774.816357  -2730.146989    -75.054361
PC23  16746.919119   5994.898228 -21506.246690   -776.525261
PC24 -16523.563517  21310.472300  -7156.288171    954.958472
PC25    985.707840  19024.284164 -20399.922281    349.436145
PC26 -23297.073942  11800.468389   9769.496831   -262.722327
PC27  14910.475589  -6520.066295  22647.430741    284.625811
PC28  16011.531823  12380.360456  19217.253003    217.062347
PC29  -7988.077916 -26605.341914  -2639.301008    254.525370
PC30   5432.630575 -23000.880296  14809.491902    -38.266724
PC32  23971.414213  -2035.867972 -14105.271459   -582.972899
PC33  12108.702065  17171.389454  18362.119240   -957.802543
PC34  -4415.266561  23979.465402 -13609.965959    390.033678
PC35 -16514.029213 -11886.528864 -19094.667162    411.272669
PC36   -166.068317 -19230.715916  20240.191934     18.117987
PC37  23587.799479 -10991.211796 -10107.705003   -944.655044
PC38 -25527.891464  26521.523064  20495.733885    142.705321
PC39 -13279.649405  37363.554343  14726.096351     -7.561023
PC40  -9714.520269  21921.348315 -34662.392700    -60.759848
PC41  25306.971740  11178.855191   3636.247975   -905.543626
PC42  -8975.103128  13339.898550  22859.891406   -447.181161
PC43   7376.405909  26873.136456   1707.856224     64.111825
PC44 -14853.428116   6979.908351 -22588.465171    413.147159
PC45 -16714.191406  -5866.108428  21550.198070    -75.557942
PC46  16050.059472 -21427.906753   7933.052759   -131.600933
PE02 -22086.697850  -9303.862237  17349.540064    111.168049
PE03 -20987.548719 -19844.958752   6502.575471   -100.267379
PE04  20468.103328   2252.549199 -21250.768269   -349.569315
PE05  -9225.365776 -25531.870600 -11792.073892   4729.024569
PE07  -8360.643896  16024.832519  23448.894851   -108.888874
PE08 -20653.447757  -3079.642002  20988.629384   -238.838920
PE09   8315.281970 -15868.180793 -23558.461854   -370.312744
PE10  17986.542499 -17825.365138  15319.574301   -609.268182
PE11  14521.899840 -25112.725232   5819.067355   3170.614712
PE12  18543.085995  -8564.077533  21412.563648   -948.320426
PE13 -14786.676793  24821.126703  -6471.242336    -20.535540
PE14  14841.022418  18607.483064   1490.252475     66.317838
PE15 -18424.010771   8056.720041 -21719.385379    -91.201422
PE18 -23617.878129 -19989.784562  -9545.377607    434.948948
PE19  20082.193066  21278.262029  -4476.160264   -433.916219
PE21   2739.711652  16606.751378 -24357.933567   -583.923093
PE24  19431.815387 -14369.928581  17083.127158   -650.901767
PE25  -2259.203361 -16665.785103  24354.663482      2.106641
PE26  -2044.281061  26627.655978  12781.599046    396.311484
PE27 -19031.048988  14545.188600 -17389.846861   -298.611295
PE30 -29357.351138   3725.925048    -82.184482    -94.323987
PE31  29340.278938  -3929.723891    244.151469    -18.252324
PE33  10882.912177  13723.815101  23867.199936      9.002489
PE34 -11235.996151 -13168.185100 -24012.672461    -99.943837
PE36   2573.908185 -26792.949336 -12292.850191   -199.168231
PG01  11388.336827 -23655.391766   2229.606033    173.953239
PG02  14537.096065 -18441.495624  12635.760212   -470.352991
PG03  19246.490993 -12154.033834 -13729.736546    251.815837
PG04   9698.928899 -12025.745847 -21576.096146    314.796546
PG05 -25954.721826   5793.900578    758.067893   -165.376060
PG06  -8843.551084 -14138.788089 -20574.639891    368.037307
PG07   3804.540853 -25000.046847   7769.771255    -84.184065
PG08  16117.247293  -3791.820589  20748.159061     54.578190
PG09  -3007.311960 -21029.041740 -15988.327211    124.457223
PG10  13439.143828  11507.716365  20118.513773     -0.374598
PG11 -15478.518203  -1714.186052 -21485.537441   -606.507134
PG12 -20565.190060  10845.205037 -13071.396140   -487.124872
PG13 -18237.256528  -6552.185692  18061.850433    634.085052
PG14  -9197.107027 -13903.605852  20739.944957    350.409651
PG15 -15699.710140   5794.568618  20174.401059    137.611316
PG16  26535.622076   1054.335338  -3995.133986   -341.228634
PG17 -11894.648847 -23148.180066   5290.108410    713.704280
PG18  -4033.146676  24781.489713   8381.698688   -575.408331
PG19 -16907.607717 -20211.048951  -4843.664266    453.912151
PG20 -23881.473714   -435.273869 -11387.667494    383.949277
PG21  15851.390349 -13233.439446  16578.445293    131.368535
PG22 -16401.251732 -11411.077798  17778.794574     16.050692
PG23   -284.156072  15047.168276  21893.731905    177.038794
PG24 -14875.619471  17149.793693  13031.377131   -446.203304
PG25 -10380.041123  15586.708544 -19072.760990    491.283535
PG26  21735.043646   5964.502888 -14481.029531    179.553211
PG27  20312.145093   8755.920711  14731.046415    -11.732264
PG28   8185.728544  16670.477151 -19006.548322   -164.354494
PG29   -435.833824  20196.489961 -17240.860710   -604.815840
PG30  -4489.893310 -20731.036498  15952.434083   -419.799194
PG31  13957.590042   6636.419081 -21802.232568   -227.981731
PG32  15528.123311  21579.732317   2350.003198   -615.776216
PJ02 -33535.671922  15835.090078 -15401.041009     -2.911052
PJ03 -22462.679305  30980.467781 -13033.658580     -0.195208
PJ04      0.000000      0.000000      0.000000 999999.999999
PR01   5268.093963  -9610.353689 -23026.230530     79.676780
PR02 -11539.119170 -15527.044925 -16538.560340    -22.587056
PR03 -22093.117081 -12677.128613   -511.171052     96.351199
PR04 -20098.473841  -3311.407911  15381.601002    227.546994
PR05  -7461.018039   8021.601055  23051.796574    128.388383
PR07  22301.631702  12432.132930   -228.511695     77.937228
PR08  20081.338412   3014.281519 -15392.212863    -74.721576
PR09   -999.501094  13390.501995 -21689.059656    175.313816
PR11  22228.052785  -8504.605841  -9150.512433     31.267384
PR12  17076.682800 -15995.377260  10195.503219     37.796073
PR13   3668.764455 -14091.262937  20925.431123    -45.294920
PR14 -14743.796645  -2728.270476  20647.334146     26.212432
PR15 -22512.710663   9202.200652   7714.271961     81.359814
PR16 -17233.745819  15991.964349  -9933.757643     24.014228
PR17  -9060.878231 -13485.785486 -19669.142649     68.972186
PR18 -10351.760042   4360.985345 -22892.965018    132.132936
PR19  -7669.505268  18580.619637 -15706.994479   -269.332257
PR20   1052.133797  25115.590475   4489.210274   -109.794393
PR21   8922.776052  13377.725250  19793.677599    -84.516285
PR22  10820.592303  -5188.433430  22532.492900    112.750301
PR24  -2448.420884 -24898.813788  -4978.756134    -47.763250
PR25   8826.244703  13638.040373  19666.341806    -22.718139
EOF
